[{"OBJECT_NAME":"STARLINK-5190","OBJECT_ID":"2022-136AT","EPOCH":"2026-03-09T12:41:00.063744","MEAN_MOTION":15.67479539,"ECCENTRICITY":0.00024286,"INCLINATION":53.1784,"RA_OF_ASC_NODE":175.0319,"ARG_OF_PERICENTER":333.791,"MEAN_ANOMALY":26.2984,"EPHEMERIS_TYPE":0,"CLASSIFICATION_TYPE":"U","NORAD_CAT_ID":54092,"ELEMENT_SET_NO":999,"REV_AT_EPOCH":18920,"BSTAR":0.0005696033,"MEAN_MOTION_DOT":0.00062878,"MEAN_MOTION_DDOT":0},{"OBJECT_NAME":"STARLINK-11251 [DTC]","OBJECT_ID":"2024-155G","EPOCH":"2026-03-09T22:39:47.330784","MEAN_MOTION":15.69707114,"ECCENTRICITY":0.00010995,"INCLINATION":53.16,"RA_OF_ASC_NODE":339.9004,"ARG_OF_PERICENTER":98.559,"MEAN_ANOMALY":261.5553,"EPHEMERIS_TYPE":0,"CLASSIFICATION_TYPE":"U","NORAD_CAT_ID":60930,"ELEMENT_SET_NO":999,"REV_AT_EPOCH":8844,"BSTAR":-9.310381e-6,"MEAN_MOTION_DOT":-1.716e-5,"MEAN_MOTION_DDOT":0}]
